{
  "type": "FeatureCollection",
  "features": [
    {
      "type": "Feature",
      "properties": {
        "norad_id": 63772,
        "name": "BIOMASS",
        "group": "resource",
        "lat": -25.50474496298674,
        "lon": 174.36312062260737,
        "alt_km": 674.7350432622779,
        "timestamp": "2025-12-11T10:53:15.542950+00:00",
        "meta_object_name": "BIOMASS",
        "meta_object_id": "2025-090A",
        "meta_epoch": "2025-12-11T02:49:22.864800",
        "meta_mean_motion": 14.67541407,
        "meta_eccentricity": 0.000118,
        "meta_inclination": 98.07,
        "meta_ra_of_asc_node": 170.1509,
        "meta_arg_of_pericenter": 77.1221,
        "meta_mean_anomaly": 283.0116,
        "meta_ephemeris_type": 0,
        "meta_classification_type": "U",
        "meta_norad_cat_id": 63772,
        "meta_element_set_no": 999,
        "meta_rev_at_epoch": 3310,
        "meta_bstar": 0.0003879,
        "meta_mean_motion_dot": 2.152e-05,
        "meta_mean_motion_ddot": 0,
        "tle_line1": "1 63772U 25090A   25345.11762575  .00002152  00000+0  38790-3 0  9993",
        "tle_line2": "2 63772  98.0700 170.1509 0001180  77.1221 283.0116 14.67541407 33101"
      },
      "geometry": {
        "type": "Point",
        "coordinates": [
          174.36312062260737,
          -25.50474496298674
        ]
      }
    },
    {
      "type": "Feature",
      "properties": {
        "norad_id": 64694,
        "name": "GOSAT-GW (IBUKI GW)",
        "group": "resource",
        "lat": -3.8506743541352373,
        "lon": 100.444508114039,
        "alt_km": 672.551556153182,
        "timestamp": "2025-12-11T10:53:15.542960+00:00",
        "meta_object_name": "GOSAT-GW (IBUKI GW)",
        "meta_object_id": "2025-141A",
        "meta_epoch": "2025-12-11T03:30:27.664992",
        "meta_mean_motion": 14.67565959,
        "meta_eccentricity": 0.0001487,
        "meta_inclination": 98.0423,
        "meta_ra_of_asc_node": 280.6879,
        "meta_arg_of_pericenter": 82.7903,
        "meta_mean_anomaly": 277.347,
        "meta_ephemeris_type": 0,
        "meta_classification_type": "U",
        "meta_norad_cat_id": 64694,
        "meta_element_set_no": 999,
        "meta_rev_at_epoch": 2426,
        "meta_bstar": 0.00028787,
        "meta_mean_motion_dot": 1.586e-05,
        "meta_mean_motion_ddot": 0,
        "tle_line1": "1 64694U 25141A   25345.14615353  .00001586  00000+0  28787-3 0  9993",
        "tle_line2": "2 64694  98.0423 280.6879 0001487  82.7903 277.3470 14.67565959 24267"
      },
      "geometry": {
        "type": "Point",
        "coordinates": [
          100.444508114039,
          -3.8506743541352373
        ]
      }
    },
    {
      "type": "Feature",
      "properties": {
        "norad_id": 64876,
        "name": "IONOSFERA-M 3",
        "group": "resource",
        "lat": 38.78726888095335,
        "lon": -59.61119766375598,
        "alt_km": 816.0181677173869,
        "timestamp": "2025-12-11T10:53:15.542970+00:00",
        "meta_object_name": "IONOSFERA-M 3",
        "meta_object_id": "2025-155A",
        "meta_epoch": "2025-12-11T03:56:45.059424",
        "meta_mean_motion": 14.21440368,
        "meta_eccentricity": 0.0002257,
        "meta_inclination": 98.578,
        "meta_ra_of_asc_node": 307.0751,
        "meta_arg_of_pericenter": 62.5758,
        "meta_mean_anomaly": 297.5649,
        "meta_ephemeris_type": 0,
        "meta_classification_type": "U",
        "meta_norad_cat_id": 64876,
        "meta_element_set_no": 999,
        "meta_rev_at_epoch": 1969,
        "meta_bstar": 8.7529e-05,
        "meta_mean_motion_dot": 1.49e-06,
        "meta_mean_motion_ddot": 0,
        "tle_line1": "1 64876U 25155A   25345.16441041  .00000149  00000+0  87529-4 0  9997",
        "tle_line2": "2 64876  98.5780 307.0751 0002257  62.5758 297.5649 14.21440368 19692"
      },
      "geometry": {
        "type": "Point",
        "coordinates": [
          -59.61119766375598,
          38.78726888095335
        ]
      }
    },
    {
      "type": "Feature",
      "properties": {
        "norad_id": 64877,
        "name": "IONOSFERA-M 4",
        "group": "resource",
        "lat": -39.62101161529104,
        "lon": 120.0973198517274,
        "alt_km": 827.9948789159871,
        "timestamp": "2025-12-11T10:53:15.542981+00:00",
        "meta_object_name": "IONOSFERA-M 4",
        "meta_object_id": "2025-155B",
        "meta_epoch": "2025-12-11T04:47:14.868096",
        "meta_mean_motion": 14.21441487,
        "meta_eccentricity": 0.0001618,
        "meta_inclination": 98.5779,
        "meta_ra_of_asc_node": 307.0288,
        "meta_arg_of_pericenter": 65.0323,
        "meta_mean_anomaly": 295.1023,
        "meta_ephemeris_type": 0,
        "meta_classification_type": "U",
        "meta_norad_cat_id": 64877,
        "meta_element_set_no": 999,
        "meta_rev_at_epoch": 1969,
        "meta_bstar": 9.0432e-05,
        "meta_mean_motion_dot": 1.55e-06,
        "meta_mean_motion_ddot": 0,
        "tle_line1": "1 64877U 25155B   25345.19947764  .00000155  00000+0  90432-4 0  9998",
        "tle_line2": "2 64877  98.5779 307.0288 0001618  65.0323 295.1023 14.21441487 19695"
      },
      "geometry": {
        "type": "Point",
        "coordinates": [
          120.0973198517274,
          -39.62101161529104
        ]
      }
    },
    {
      "type": "Feature",
      "properties": {
        "norad_id": 64899,
        "name": "MICROCARB",
        "group": "resource",
        "lat": 38.81672676101288,
        "lon": -112.68163800106902,
        "alt_km": 639.7378415767362,
        "timestamp": "2025-12-11T10:53:15.542991+00:00",
        "meta_object_name": "MICROCARB",
        "meta_object_id": "2025-156A",
        "meta_epoch": "2025-12-11T05:21:25.661088",
        "meta_mean_motion": 14.72052934,
        "meta_eccentricity": 0.0017044,
        "meta_inclination": 98.0027,
        "meta_ra_of_asc_node": 60.593,
        "meta_arg_of_pericenter": 149.3859,
        "meta_mean_anomaly": 210.8346,
        "meta_ephemeris_type": 0,
        "meta_classification_type": "U",
        "meta_norad_cat_id": 64899,
        "meta_element_set_no": 999,
        "meta_rev_at_epoch": 2031,
        "meta_bstar": 0.0001848,
        "meta_mean_motion_dot": 1.114e-05,
        "meta_mean_motion_ddot": 0,
        "tle_line1": "1 64899U 25156A   25345.22321367  .00001114  00000+0  18480-3 0  9990",
        "tle_line2": "2 64899  98.0027  60.5930 0017044 149.3859 210.8346 14.72052934 20319"
      },
      "geometry": {
        "type": "Point",
        "coordinates": [
          -112.68163800106902,
          38.81672676101288
        ]
      }
    },
    {
      "type": "Feature",
      "properties": {
        "norad_id": 64900,
        "name": "CO3D 3",
        "group": "resource",
        "lat": -40.00240281813266,
        "lon": 68.129488515947,
        "alt_km": 512.4767607019248,
        "timestamp": "2025-12-11T10:53:15.543002+00:00",
        "meta_object_name": "CO3D 3",
        "meta_object_id": "2025-156B",
        "meta_epoch": "2025-12-11T04:44:46.317120",
        "meta_mean_motion": 15.20218213,
        "meta_eccentricity": 0.0001367,
        "meta_inclination": 97.4338,
        "meta_ra_of_asc_node": 61.5868,
        "meta_arg_of_pericenter": 101.3203,
        "meta_mean_anomaly": 258.8185,
        "meta_ephemeris_type": 0,
        "meta_classification_type": "U",
        "meta_norad_cat_id": 64900,
        "meta_element_set_no": 999,
        "meta_rev_at_epoch": 2097,
        "meta_bstar": 0.00044425,
        "meta_mean_motion_dot": 9.566e-05,
        "meta_mean_motion_ddot": 0,
        "tle_line1": "1 64900U 25156B   25345.19775830  .00009566  00000+0  44425-3 0  9994",
        "tle_line2": "2 64900  97.4338  61.5868 0001367 101.3203 258.8185 15.20218213 20976"
      },
      "geometry": {
        "type": "Point",
        "coordinates": [
          68.129488515947,
          -40.00240281813266
        ]
      }
    },
    {
      "type": "Feature",
      "properties": {
        "norad_id": 64901,
        "name": "CO3D 4",
        "group": "resource",
        "lat": -40.85462639640122,
        "lon": 68.32285125130309,
        "alt_km": 512.1601635453144,
        "timestamp": "2025-12-11T10:53:15.543013+00:00",
        "meta_object_name": "CO3D 4",
        "meta_object_id": "2025-156C",
        "meta_epoch": "2025-12-09T21:09:17.831232",
        "meta_mean_motion": 15.20201124,
        "meta_eccentricity": 0.0001172,
        "meta_inclination": 97.4339,
        "meta_ra_of_asc_node": 60.2895,
        "meta_arg_of_pericenter": 212.2858,
        "meta_mean_anomaly": 147.8306,
        "meta_ephemeris_type": 0,
        "meta_classification_type": "U",
        "meta_norad_cat_id": 64901,
        "meta_element_set_no": 999,
        "meta_rev_at_epoch": 2077,
        "meta_bstar": -2.5806744e-05,
        "meta_mean_motion_dot": -6.26e-06,
        "meta_mean_motion_ddot": 0,
        "tle_line1": "1 64901U 25156C   25343.88145638 -.00000626  00000+0 -25807-4 0  9990",
        "tle_line2": "2 64901  97.4339  60.2895 0001172 212.2858 147.8306 15.20201124 20779"
      },
      "geometry": {
        "type": "Point",
        "coordinates": [
          68.32285125130309,
          -40.85462639640122
        ]
      }
    }
  ]
}